GSAT-10                 
1 38779U 12051B   26192.08234681 -.00000157  00000+0  00000+0 0  9997
2 38779   0.1031 265.7226 0007422 187.1437 308.7455  1.00271676 50330
INTELSAT 23 (IS-23)     
1 38867U 12057A   26192.05540207 -.00000277  00000+0  00000+0 0  9995
2 38867   0.0170  18.8581 0000731 226.6244  10.4081  1.00264936 50190
BEIDOU-2 G6             
1 38953U 12059A   26192.08252015 -.00000172  00000+0  00000+0 0  9997
2 38953   4.4780  73.2667 0009064 326.7150   2.6673  1.00273656 50141
LUCH-5B                 
1 38977U 12061A   26191.93933535 -.00000139  00000+0  00000+0 0  9995
2 38977  10.5315  49.6401 0003761 144.4487  56.6731  1.00271022 49842
YAMAL 300K              
1 38978U 12061B   26191.81702652  .00000080  00000+0  00000+0 0  9991
2 38978   0.0317 207.6302 0000355  20.5687 177.6320  1.00272847 49863
STAR ONE C3             
1 38991U 12062A   26192.21171203 -.00000242  00000+0  00000+0 0  9995
2 38991   0.0134 319.7913 0002290 165.1533 165.4129  1.00269646 50007
EUTELSAT 21B            
1 38992U 12062B   26191.99886161  .00000138  00000+0  00000+0 0  9999
2 38992   0.0650   4.9520 0003249 106.0310 199.0997  1.00272091 50060
ECHOSTAR 16             
1 39008U 12065A   26190.84180039 -.00000270  00000+0  00000+0 0  9993
2 39008   0.0180  40.2507 0002124  68.3234  60.7553  1.00271627 49874
ZHONGXING-12            
1 39017U 12067A   26192.08321347 -.00000198  00000+0  00000+0 0  9991
2 39017   0.0250 104.7657 0002705 359.3890 302.2828  1.00269460 49747
EUTELSAT 70B            
1 39020U 12069A   26192.16641972 -.00000036  00000+0  00000+0 0  9996
2 39020   0.0611 351.7994 0003642 117.7076 309.9756  1.00271030 49743
YAMAL 402               
1 39022U 12070A   26191.72034983  .00000093  00000+0  00000+0 0  9991
2 39022   1.3223  83.8652 0003588  25.4313 133.5748  1.00272882 49636
SKYNET 5D               
1 39034U 12075A   26192.07636677  .00000107  00000+0  00000+0 0  9992
2 39034   0.0693 348.3256 0003350 132.0170 248.9133  1.00268390 49399
MEXSAT 3                
1 39035U 12075B   26192.12092000 -.00000019  00000+0  00000+0 0  9998
2 39035   0.0198 292.4008 0000593 164.0161 121.3874  1.00275598  7292
TDRS 11                 
1 39070U 13004A   26192.24245647  .00000085  00000+0  00000+0 0  9992
2 39070   3.5559  31.6407 0004712  29.8732 140.6735  1.00278016 46937
AMAZONAS 3              
1 39078U 13006A   26192.21797410 -.00000275  00000+0  00000+0 0  9991
2 39078   0.0610 229.3811 0003133 280.3350 156.8565  1.00273769 45159
AZERSPACE 1             
1 39079U 13006B   26192.07498009  .00000141  00000+0  00000+0 0  9999
2 39079   0.0189 305.9255 0001937 206.6549 209.4111  1.00273679 49049
SBIRS GEO-2 (USA 241)   
1 39120U 13011A   26192.05600875 -.00000283  00000+0  00000+0 0  9994
2 39120   4.5396  52.5109 0002079  49.5244 157.2923  1.00271554 48772
EUTELSAT 117 WEST A     
1 39122U 13012A   26192.20808419 -.00000006  00000+0  00000+0 0  9991
2 39122   0.0141  35.5445 0002632  81.5357 130.1398  1.00271886 48676
ANIK G1                 
1 39127U 13014A   26192.19910159 -.00000067  00000+0  00000+0 0  9998
2 39127   0.0488 260.8558 0001632 220.5940 132.0293  1.00271214 48495
ZHONGXING-11            
1 39157U 13020A   26192.01402837 -.00000282  00000+0  00000+0 0  9997
2 39157   0.0246  42.5268 0002193  42.3274 307.0364  1.00270634 48135
EUTELSAT 7B             
1 39163U 13022A   26192.19072829  .00000055  00000+0  00000+0 0  9996
2 39163   0.0646   4.6091 0003565  41.9001 318.2471  1.00271968 48185
WGS F5 (USA 243)        
1 39168U 13024A   26191.06250187  .00000000  00000+0  00000+0 0  9993
2 39168   0.0243  34.5137 0000377 202.3628  21.1115  1.00269585 47403
SES-6                   
1 39172U 13026A   26191.98656264 -.00000253  00000+0  00000+0 0  9998
2 39172   0.0340 307.8082 0002307 173.2673 122.4856  1.00272231 47962
IRNSS-1A                
1 39199U 13034A   26191.72043648  .00000047  00000+0  00000+0 0  9994
2 39199  35.7704  63.5328 0017567 183.4462 356.2994  1.00281941 47601
MUOS-2                  
1 39206U 13036A   26191.88608515 -.00000009  00000+0  00000+0 0  9991
2 39206   5.0413  45.5545 0052377 176.4197 197.7632  1.00271668 47436
ALPHASAT                
1 39215U 13038A   26191.99955497  .00000140  00000+0  00000+0 0  9994
2 39215   2.9994   1.2097 0002107 134.7130 177.6898  1.00269859 44254
INSAT-3D                
1 39216U 13038B   26192.15114360 -.00000334  00000+0  00000+0 0  9996
2 39216   1.9850  82.2390 0000505  82.7888 307.9720  1.00270390 47327
WGS F6 (USA 244)        
1 39222U 13041A   26191.33540882  .00000100  00000+0  00000+0 0  9998
2 39222   0.0192  34.5305 0001413 193.2095  46.0904  1.00270133 46291
ES'HAIL 1               
1 39233U 13044A   26192.06641986  .00000151  00000+0  00000+0 0  9997
2 39233   0.0480  11.4738 0002157 103.8722 223.0538  1.00273530 46864
GSAT-7                  
1 39234U 13044B   26192.16641972 -.00000069  00000+0  00000+0 0  9993
2 39234   0.1400  89.9496 0003196 177.3288 155.6625  1.00271117 45490
AMOS-4                  
1 39237U 13045A   26192.07108284  .00000015  00000+0  00000+0 0  9991
2 39237   0.0430 259.9511 0002313 176.6118 303.0217  1.00272124 47190
AEHF-3 (USA 246)        
1 39256U 13050A   26192.19424000  .00000031  00000+0  00000+0 0  9996
2 39256   5.3513  66.9652 0088316 187.6989 340.1029  1.00270059 45891
