OBJECT_NAME,OBJECT_ID,EPOCH,MEAN_MOTION,ECCENTRICITY,INCLINATION,RA_OF_ASC_NODE,ARG_OF_PERICENTER,MEAN_ANOMALY,EPHEMERIS_TYPE,CLASSIFICATION_TYPE,NORAD_CAT_ID,ELEMENT_SET_NO,REV_AT_EPOCH,BSTAR,MEAN_MOTION_DOT,MEAN_MOTION_DDOT
GSAT-10,2012-051B,2026-07-11T01:58:34.764384,1.00271676,.0007422,0.1031,265.7226,187.1437,308.7455,0,U,38779,999,5033,0,-.157E-5,0
INTELSAT 23 (IS-23),2012-057A,2026-07-11T01:19:46.738848,1.00264936,.0000731,0.0170,18.8581,226.6244,10.4081,0,U,38867,999,5019,0,-.277E-5,0
BEIDOU-2 G6,2012-059A,2026-07-11T01:58:49.740960,1.00273656,.0009064,4.4780,73.2667,326.7150,2.6673,0,U,38953,999,5014,0,-.172E-5,0
LUCH-5B,2012-061A,2026-07-10T22:32:38.574240,1.00271022,.0003761,10.5315,49.6401,144.4487,56.6731,0,U,38977,999,4984,0,-.139E-5,0
YAMAL 300K,2012-061B,2026-07-10T19:36:31.091328,1.00272847,.0000355,0.0317,207.6302,20.5687,177.6320,0,U,38978,999,4986,0,.8E-6,0
STAR ONE C3,2012-062A,2026-07-11T05:04:51.919392,1.00269646,.000229,0.0134,319.7913,165.1533,165.4129,0,U,38991,999,5000,0,-.242E-5,0
EUTELSAT 21B,2012-062B,2026-07-10T23:58:21.643104,1.00272091,.0003249,0.0650,4.9520,106.0310,199.0997,0,U,38992,999,5006,0,.138E-5,0
ECHOSTAR 16,2012-065A,2026-07-09T20:12:11.553696,1.00271627,.00021244,0.0180,40.2507,68.3234,60.7553,0,U,39008,999,4987,0,-.27E-5,0
ZHONGXING-12,2012-067A,2026-07-11T01:59:49.643808,1.00269460,.0002705,0.0250,104.7657,359.3890,302.2828,0,U,39017,999,4974,0,-.198E-5,0
EUTELSAT 70B,2012-069A,2026-07-11T03:59:38.663808,1.00271030,.0003642,0.0611,351.7994,117.7076,309.9756,0,U,39020,999,4974,0,-.36E-6,0
YAMAL 402,2012-070A,2026-07-10T17:17:18.225312,1.00272882,.0003588,1.3223,83.8652,25.4313,133.5748,0,U,39022,999,4963,0,.93E-6,0
SKYNET 5D,2012-075A,2026-07-11T01:49:58.088928,1.00268390,.000335,0.0693,348.3256,132.0170,248.9133,0,U,39034,999,4939,0,.107E-5,0
MEXSAT 3,2012-075B,2026-07-11T02:54:07.488000,1.00275598,.0000593,0.0198,292.4008,164.0161,121.3874,0,U,39035,999,729,0,-.19E-6,0
TDRS 11,2013-004A,2026-07-11T05:49:08.239008,1.00278016,.0004712,3.5559,31.6407,29.8732,140.6735,0,U,39070,999,4693,0,.85E-6,0
AMAZONAS 3,2013-006A,2026-07-11T05:13:52.962240,1.00273769,.0003133,0.0610,229.3811,280.3350,156.8565,0,U,39078,999,4515,0,-.275E-5,0
AZERSPACE 1,2013-006B,2026-07-11T01:47:58.279776,1.00273679,.0001937,0.0189,305.9255,206.6549,209.4111,0,U,39079,999,4904,0,.141E-5,0
SBIRS GEO-2 (USA 241),2013-011A,2026-07-11T01:20:39.156000,1.00271554,.0002079,4.5396,52.5109,49.5244,157.2923,0,U,39120,999,4877,0,-.283E-5,0
EUTELSAT 117 WEST A,2013-012A,2026-07-11T04:59:38.474016,1.00271886,.0002632,0.0141,35.5445,81.5357,130.1398,0,U,39122,999,4867,0,-.6E-7,0
ANIK G1,2013-014A,2026-07-11T04:46:42.377376,1.00271214,.0001632,0.0488,260.8558,220.5940,132.0293,0,U,39127,999,4849,0,-.67E-6,0
ZHONGXING-11,2013-020A,2026-07-11T00:20:12.051168,1.00270634,.0002193,0.0246,42.5268,42.3274,307.0364,0,U,39157,999,4813,0,-.282E-5,0
EUTELSAT 7B,2013-022A,2026-07-11T04:34:38.924256,1.00271968,.0003565,0.0646,4.6091,41.9001,318.2471,0,U,39163,999,4818,0,.55E-6,0
WGS F5 (USA 243),2013-024A,2026-07-10T01:30:00.161568,1.00269585,.00003778,0.0243,34.5137,202.3628,21.1115,0,U,39168,999,4740,0,0,0
SES-6,2013-026A,2026-07-10T23:40:39.012096,1.00272231,.0002307,0.0340,307.8082,173.2673,122.4856,0,U,39172,999,4796,0,-.253E-5,0
IRNSS-1A,2013-034A,2026-07-10T17:17:25.711872,1.00281941,.0017567,35.7704,63.5328,183.4462,356.2994,0,U,39199,999,4760,0,.47E-6,0
MUOS-2,2013-036A,2026-07-10T21:15:57.756960,1.00271668,.0052377,5.0413,45.5545,176.4197,197.7632,0,U,39206,999,4743,0,-.9E-7,0
ALPHASAT,2013-038A,2026-07-10T23:59:21.549408,1.00269859,.0002107,2.9994,1.2097,134.7130,177.6898,0,U,39215,999,4425,0,.14E-5,0
INSAT-3D,2013-038B,2026-07-11T03:37:38.807040,1.00270390,.0000505,1.9850,82.2390,82.7888,307.9720,0,U,39216,999,4732,0,-.334E-5,0
WGS F6 (USA 244),2013-041A,2026-07-10T08:02:59.322048,1.00270133,.00014137,0.0192,34.5305,193.2095,46.0904,0,U,39222,999,4629,0,.1E-5,0
ES'HAIL 1,2013-044A,2026-07-11T01:35:38.675904,1.00273530,.0002157,0.0480,11.4738,103.8722,223.0538,0,U,39233,999,4686,0,.151E-5,0
GSAT-7,2013-044B,2026-07-11T03:59:38.663808,1.00271117,.0003196,0.1400,89.9496,177.3288,155.6625,0,U,39234,999,4549,0,-.69E-6,0
AMOS-4,2013-045A,2026-07-11T01:42:21.557376,1.00272124,.0002313,0.0430,259.9511,176.6118,303.0217,0,U,39237,999,4719,0,.15E-6,0
AEHF-3 (USA 246),2013-050A,2026-07-11T04:39:42.336000,1.00270059,.0088316,5.3513,66.9652,187.6989,340.1029,0,U,39256,999,4589,0,.31E-6,0
